start=new Date('2022-06-09T00:00:00.000Z').valueOf();
sats=[{"CLASSIFICATION_TYPE":"U","FILE":"3486116","PERIOD":"92.899","ARG_OF_PERICENTER":"82.1046","COUNTRY_CODE":"US","OBJECT_ID":"2022-052P","REF_FRAME":"TEME","DECAY_DATE":null,"REV_AT_EPOCH":"430","OBJECT_NAME":"STARLINK-3980","BSTAR":"-0.01953000000000","APOAPSIS":"417.419","MEAN_ELEMENT_THEORY":"SGP4","MEAN_MOTION_DDOT":"0.0000000000000","RA_OF_ASC_NODE":"317.0690","RCS_SIZE":"LARGE","SEMIMAJOR_AXIS":"6794.647","EPOCH":"2022-06-08T20:00:01.000224","MEAN_MOTION_DOT":"-0.01017275","ELEMENT_SET_NO":"999","TLE_LINE1":"1 52611U 22052P   22159.83334491 -.01017275  00000-0 -19530-1 0  9994","NORAD_CAT_ID":"52611","TIME_SYSTEM":"UTC","MEAN_MOTION":"15.50074049","ECCENTRICITY":"0.00013350","PERIAPSIS":"415.605","MEAN_ANOMALY":"10.4990","INCLINATION":"53.2169","OBJECT_TYPE":"PAYLOAD","LAUNCH_DATE":"2022-05-14","EPHEMERIS_TYPE":"0","GP_ID":"205642826","SITE":"AFETR","CENTER_NAME":"EARTH","TLE_LINE2":"2 52611  53.2169 317.0690 0001335  82.1046  10.4990 15.50074049  4307"},{"MEAN_MOTION_DDOT":"0.0000000000000","MEAN_MOTION_DOT":"-0.00715413","RCS_SIZE":"LARGE","SEMIMAJOR_AXIS":"6750.775","RA_OF_ASC_NODE":"316.0907","EPOCH":"2022-06-08T20:00:01.000224","ELEMENT_SET_NO":"999","TLE_LINE1":"1 52612U 22052Q   22159.83334491 -.00715413  00000-0 -77288-2 0  9998","OBJECT_NAME":"STARLINK-4002","BSTAR":"-0.00772880000000","APOAPSIS":"373.433","MEAN_ELEMENT_THEORY":"SGP4","OBJECT_ID":"2022-052Q","DECAY_DATE":null,"REF_FRAME":"TEME","REV_AT_EPOCH":"431","CLASSIFICATION_TYPE":"U","FILE":"3486116","PERIOD":"92.001","ARG_OF_PERICENTER":"98.7741","COUNTRY_CODE":"US","GP_ID":"205642324","SITE":"AFETR","CENTER_NAME":"EARTH","TLE_LINE2":"2 52612  53.2175 316.0907 0001174  98.7741 164.2211 15.65208827  4315","INCLINATION":"53.2175","OBJECT_TYPE":"PAYLOAD","LAUNCH_DATE":"2022-05-14","EPHEMERIS_TYPE":"0","MEAN_MOTION":"15.65208827","ECCENTRICITY":"0.00011740","MEAN_ANOMALY":"164.2211","PERIAPSIS":"371.848","NORAD_CAT_ID":"52612","TIME_SYSTEM":"UTC"},{"NORAD_CAT_ID":"52613","TIME_SYSTEM":"UTC","ECCENTRICITY":"0.00011170","MEAN_MOTION":"15.73150725","MEAN_ANOMALY":"279.9158","PERIAPSIS":"349.149","OBJECT_TYPE":"PAYLOAD","INCLINATION":"53.2138","LAUNCH_DATE":"2022-05-14","EPHEMERIS_TYPE":"0","SITE":"AFETR","GP_ID":"205641066","TLE_LINE2":"2 52613  53.2138 315.9080 0001117  61.1474 279.9158 15.73150725  4315","CENTER_NAME":"EARTH","CLASSIFICATION_TYPE":"U","COUNTRY_CODE":"US","PERIOD":"91.536","ARG_OF_PERICENTER":"61.1474","FILE":"3486039","OBJECT_ID":"2022-052R","REV_AT_EPOCH":"431","DECAY_DATE":null,"REF_FRAME":"TEME","BSTAR":"0.00025107000000","OBJECT_NAME":"STARLINK-3921","MEAN_ELEMENT_THEORY":"SGP4","APOAPSIS":"350.652","ELEMENT_SET_NO":"999","RCS_SIZE":"LARGE","MEAN_MOTION_DOT":"0.00034687","SEMIMAJOR_AXIS":"6728.036","RA_OF_ASC_NODE":"315.9080","EPOCH":"2022-06-08T20:00:01.000224","MEAN_MOTION_DDOT":"0.0000000000000","TLE_LINE1":"1 52613U 22052R   22159.83334491  .00034687  00000-0  25107-3 0  9998"},{"TLE_LINE1":"1 52614U 22052S   22159.58334491 -.00138095  00000-0 -99269-3 0  9991","MEAN_MOTION_DDOT":"0.0000000000000","ELEMENT_SET_NO":"999","SEMIMAJOR_AXIS":"6727.691","RCS_SIZE":"LARGE","EPOCH":"2022-06-08T14:00:01.000224","RA_OF_ASC_NODE":"317.1466","MEAN_MOTION_DOT":"-0.00138095","MEAN_ELEMENT_THEORY":"SGP4","APOAPSIS":"350.391","OBJECT_NAME":"STARLINK-3982","BSTAR":"-0.00099269000000","REF_FRAME":"TEME","DECAY_DATE":null,"REV_AT_EPOCH":"130","OBJECT_ID":"2022-052S","ARG_OF_PERICENTER":"71.1189","PERIOD":"91.529","FILE":"3485745","COUNTRY_CODE":"US","CLASSIFICATION_TYPE":"U","CENTER_NAME":"EARTH","TLE_LINE2":"2 52614  53.2141 317.1466 0001241  71.1189 292.6593 15.73271593  1302","GP_ID":"205638184","SITE":"AFETR","EPHEMERIS_TYPE":"0","LAUNCH_DATE":"2022-05-14","INCLINATION":"53.2141","OBJECT_TYPE":"PAYLOAD","MEAN_ANOMALY":"292.6593","PERIAPSIS":"348.721","MEAN_MOTION":"15.73271593","ECCENTRICITY":"0.00012410","TIME_SYSTEM":"UTC","NORAD_CAT_ID":"52614"},{"DECAY_DATE":null,"REF_FRAME":"TEME","REV_AT_EPOCH":"430","OBJECT_ID":"2022-052T","FILE":"3486059","PERIOD":"92.921","ARG_OF_PERICENTER":"95.6794","COUNTRY_CODE":"US","CLASSIFICATION_TYPE":"U","TLE_LINE1":"1 52615U 22052T   22159.83334491 -.00295250  00000-0 -54289-2 0  9999","MEAN_MOTION_DDOT":"0.0000000000000","RCS_SIZE":"LARGE","EPOCH":"2022-06-08T20:00:01.000224","SEMIMAJOR_AXIS":"6795.754","RA_OF_ASC_NODE":"317.0793","MEAN_MOTION_DOT":"-0.00295250","ELEMENT_SET_NO":"999","APOAPSIS":"418.424","MEAN_ELEMENT_THEORY":"SGP4","OBJECT_NAME":"STARLINK-4011","BSTAR":"-0.00542890000000","MEAN_ANOMALY":"359.5953","PERIAPSIS":"416.814","MEAN_MOTION":"15.49695232","ECCENTRICITY":"0.00011840","TIME_SYSTEM":"UTC","NORAD_CAT_ID":"52615","CENTER_NAME":"EARTH","TLE_LINE2":"2 52615  53.2163 317.0793 0001184  95.6794 359.5953 15.49695232  4307","GP_ID":"205640577","SITE":"AFETR","EPHEMERIS_TYPE":"0","LAUNCH_DATE":"2022-05-14","INCLINATION":"53.2163","OBJECT_TYPE":"PAYLOAD"},{"INCLINATION":"53.2141","OBJECT_TYPE":"PAYLOAD","LAUNCH_DATE":"2022-05-14","EPHEMERIS_TYPE":"0","GP_ID":"205637794","SITE":"AFETR","CENTER_NAME":"EARTH","TLE_LINE2":"2 52616  53.2141 317.1446 0001121  69.5350 295.4024 15.73195657  1306","NORAD_CAT_ID":"52616","TIME_SYSTEM":"UTC","MEAN_MOTION":"15.73195657","ECCENTRICITY":"0.00011210","PERIAPSIS":"349.018","MEAN_ANOMALY":"295.4024","OBJECT_NAME":"STARLINK-4015","BSTAR":"0.00003774100000","APOAPSIS":"350.527","MEAN_ELEMENT_THEORY":"SGP4","MEAN_MOTION_DDOT":"0.0000000000000","RCS_SIZE":"LARGE","EPOCH":"2022-06-08T14:00:01.000224","SEMIMAJOR_AXIS":"6727.908","RA_OF_ASC_NODE":"317.1446","MEAN_MOTION_DOT":"0.00004679","ELEMENT_SET_NO":"999","TLE_LINE1":"1 52616U 22052U   22159.58334491  .00004679  00000-0  37741-4 0  9999","CLASSIFICATION_TYPE":"U","FILE":"3485745","PERIOD":"91.533","ARG_OF_PERICENTER":"69.5350","COUNTRY_CODE":"US","OBJECT_ID":"2022-052U","REF_FRAME":"TEME","DECAY_DATE":null,"REV_AT_EPOCH":"130"},{"CLASSIFICATION_TYPE":"U","COUNTRY_CODE":"US","PERIOD":"91.533","ARG_OF_PERICENTER":"61.3729","FILE":"3485982","OBJECT_ID":"2022-052V","REV_AT_EPOCH":"431","DECAY_DATE":null,"REF_FRAME":"TEME","BSTAR":"-0.00000496260000","OBJECT_NAME":"STARLINK-3996","MEAN_ELEMENT_THEORY":"SGP4","APOAPSIS":"350.592","ELEMENT_SET_NO":"999","RCS_SIZE":"LARGE","SEMIMAJOR_AXIS":"6727.883","EPOCH":"2022-06-08T20:00:01.000224","MEAN_MOTION_DOT":"-0.00001316","RA_OF_ASC_NODE":"315.9009","MEAN_MOTION_DDOT":"0.0000000000000","TLE_LINE1":"1 52617U 22052V   22159.83334491 -.00001316  00000-0 -49626-5 0  9991","NORAD_CAT_ID":"52617","TIME_SYSTEM":"UTC","ECCENTRICITY":"0.00012540","MEAN_MOTION":"15.73204216","MEAN_ANOMALY":"283.2341","PERIAPSIS":"348.904","OBJECT_TYPE":"PAYLOAD","INCLINATION":"53.2139","LAUNCH_DATE":"2022-05-14","EPHEMERIS_TYPE":"0","SITE":"AFETR","GP_ID":"205639270","TLE_LINE2":"2 52617  53.2139 315.9009 0001254  61.3729 283.2341 15.73204216  4315","CENTER_NAME":"EARTH"},{"INCLINATION":"53.2140","OBJECT_TYPE":"PAYLOAD","EPHEMERIS_TYPE":"0","LAUNCH_DATE":"2022-05-14","GP_ID":"205639267","SITE":"AFETR","CENTER_NAME":"EARTH","TLE_LINE2":"2 52618  53.2140 315.9067 0001276  62.2688 279.9732 15.73184814  4317","NORAD_CAT_ID":"52618","TIME_SYSTEM":"UTC","MEAN_MOTION":"15.73184814","ECCENTRICITY":"0.00012760","PERIAPSIS":"348.945","MEAN_ANOMALY":"279.9732","OBJECT_NAME":"STARLINK-3983","BSTAR":"-0.00023241000000","APOAPSIS":"350.662","MEAN_ELEMENT_THEORY":"SGP4","MEAN_MOTION_DDOT":"0.0000000000000","SEMIMAJOR_AXIS":"6727.938","RCS_SIZE":"LARGE","RA_OF_ASC_NODE":"315.9067","EPOCH":"2022-06-08T20:00:01.000224","MEAN_MOTION_DOT":"-0.00033087","ELEMENT_SET_NO":"999","TLE_LINE1":"1 52618U 22052W   22159.83334491 -.00033087  00000-0 -23241-3 0  9995","CLASSIFICATION_TYPE":"U","FILE":"3485982","PERIOD":"91.534","ARG_OF_PERICENTER":"62.2688","COUNTRY_CODE":"US","OBJECT_ID":"2022-052W","DECAY_DATE":null,"REF_FRAME":"TEME","REV_AT_EPOCH":"431"},{"CLASSIFICATION_TYPE":"U","COUNTRY_CODE":"US","ARG_OF_PERICENTER":"57.4785","PERIOD":"91.534","FILE":"3485982","OBJECT_ID":"2022-052X","REV_AT_EPOCH":"431","DECAY_DATE":null,"REF_FRAME":"TEME","BSTAR":"-0.00024474000000","OBJECT_NAME":"STARLINK-3741","MEAN_ELEMENT_THEORY":"SGP4","APOAPSIS":"350.680","ELEMENT_SET_NO":"999","RCS_SIZE":"LARGE","MEAN_MOTION_DOT":"-0.00034797","SEMIMAJOR_AXIS":"6727.950","RA_OF_ASC_NODE":"315.8992","EPOCH":"2022-06-08T20:00:01.000224","MEAN_MOTION_DDOT":"0.0000000000000","TLE_LINE1":"1 52619U 22052X   22159.83334491 -.00034797  00000-0 -24474-3 0  9994","NORAD_CAT_ID":"52619","TIME_SYSTEM":"UTC","ECCENTRICITY":"0.00012860","MEAN_MOTION":"15.73180739","PERIAPSIS":"348.950","MEAN_ANOMALY":"287.7930","OBJECT_TYPE":"PAYLOAD","INCLINATION":"53.2140","EPHEMERIS_TYPE":"0","LAUNCH_DATE":"2022-05-14","SITE":"AFETR","GP_ID":"205639261","TLE_LINE2":"2 52619  53.2140 315.8992 0001286  57.4785 287.7930 15.73180739  4318","CENTER_NAME":"EARTH"},{"OBJECT_TYPE":"PAYLOAD","INCLINATION":"53.2156","EPHEMERIS_TYPE":"0","LAUNCH_DATE":"2022-05-14","SITE":"AFETR","GP_ID":"205639280","TLE_LINE2":"2 52620  53.2156 317.0939 0001494  89.7917   6.3073 15.49984720  4305","CENTER_NAME":"EARTH","NORAD_CAT_ID":"52620","TIME_SYSTEM":"UTC","ECCENTRICITY":"0.00014940","MEAN_MOTION":"15.49984720","PERIAPSIS":"415.758","MEAN_ANOMALY":"6.3073","BSTAR":"-0.01179000000000","OBJECT_NAME":"STARLINK-3975","MEAN_ELEMENT_THEORY":"SGP4","APOAPSIS":"417.788","ELEMENT_SET_NO":"999","SEMIMAJOR_AXIS":"6794.908","RCS_SIZE":"LARGE","RA_OF_ASC_NODE":"317.0939","MEAN_MOTION_DOT":"-0.00621232","EPOCH":"2022-06-08T20:00:01.000224","MEAN_MOTION_DDOT":"0.0000000000000","TLE_LINE1":"1 52620U 22052Y   22159.83334491 -.00621232  00000-0 -11790-1 0  9997","CLASSIFICATION_TYPE":"U","COUNTRY_CODE":"US","PERIOD":"92.904","ARG_OF_PERICENTER":"89.7917","FILE":"3485986","OBJECT_ID":"2022-052Y","REV_AT_EPOCH":"430","REF_FRAME":"TEME","DECAY_DATE":null}];
